     2.10           NAVIGATION DATA                         RINEX VERSION / TYPE
GR30 V4.20          ASI-egeos           2020 01 02 23:59    PGM / RUN BY / DATE 
   7.4506D-09 -1.4901D-08 -5.9605D-08  1.1921D-07           ION ALPHA           
   9.0112D+04 -6.5536D+04 -1.3107D+05  4.5875D+05           ION BETA            
   -1.862645149231D-09-6.217248937901D-15   589824     2086 DELTA-UTC: A0,A1,T,W
    18                                                      LEAP SECONDS        
                                                            END OF HEADER       
 1 20 01 02 10 00  0.0-2.493965439498D-04-1.216449163621D-11 0.000000000000D+00
    8.300000000000D+01 3.500000000000D+00 4.299464804252D-09-2.479495510609D+00
    6.891787052155D-08 9.242564439774D-03 5.837529897690D-06 5.153637886047D+03
    3.816000000000D+05 1.136213541031D-07-5.796455746905D-01-1.508742570877D-07
    9.785233903755D-01 2.752812500000D+02 7.590145162984D-01-7.957831475623D-09
    3.196561721055D-10 1.000000000000D+00 2.086000000000D+03 0.000000000000D+00
    2.800000000000D+00 0.000000000000D+00 5.587935447693D-09 8.300000000000D+01
    3.744000000000D+05 0.000000000000D+00
 2 20 01 02 22 00  0.0-3.784596920013D-04-7.275957614183D-12 0.000000000000D+00
    2.200000000000D+01 5.468750000000D+00 4.456257049565D-09-2.170596880816D+00
    4.265457391739D-07 1.965342077892D-02 5.600973963737D-06 5.153609144211D+03
    4.248000000000D+05 3.054738044739D-07-6.532649330723D-01 5.960464477539D-08
    9.575514195744D-01 2.675937500000D+02-1.681585109821D+00-7.857112994580D-09
    2.246522148093D-10 1.000000000000D+00 2.086000000000D+03 0.000000000000D+00
    2.000000000000D+00 0.000000000000D+00-1.769512891769D-08 2.200000000000D+01
    4.176000000000D+05 0.000000000000D+00
 3 20 01 02 12 00  0.0-6.434973329306D-05-7.389644451905D-12 0.000000000000D+00
    4.200000000000D+01-5.834375000000D+01 4.635193074397D-09-2.595993669374D+00
   -2.954155206680D-06 2.600591746159D-03 6.869435310364D-06 5.153641572952D+03
    3.888000000000D+05 5.774199962616D-08 4.612912201166D-01-5.401670932770D-08
    9.647301765642D-01 2.474375000000D+02 7.747476545724D-01-8.129267188037D-09
   -6.428839215530D-11 1.000000000000D+00 2.086000000000D+03 0.000000000000D+00
    2.000000000000D+00 0.000000000000D+00 2.328306436539D-09 4.200000000000D+01
    3.816600000000D+05 0.000000000000D+00
 5 20 01 03 00 00  0.0-5.550682544708D-06-5.684341886081D-13 0.000000000000D+00
    7.600000000000D+01-4.684375000000D+01 4.863059708814D-09 1.459829154075D+00
   -2.428889274597D-06 5.781040526927D-03 6.100162863731D-06 5.153573040009D+03
    4.320000000000D+05-4.470348358154D-08 4.310607480047D-01-1.490116119385D-08
    9.516307648183D-01 2.605625000000D+02 8.037847073737D-01-8.312489105680D-09
   -5.571660653459D-11 1.000000000000D+00 2.086000000000D+03 0.000000000000D+00
    2.000000000000D+00 0.000000000000D+00-1.117587089539D-08 7.600000000000D+01
    4.248000000000D+05 0.000000000000D+00
 6 20 01 02 19 59 44.0-1.713619567454D-04-1.057287590811D-11 0.000000000000D+00
    1.000000000000D+00 3.125000000000D-01 4.102670892710D-09 3.104670681539D+00
    1.061707735062D-07 1.747955684550D-03 5.971640348434D-06 5.153727413177D+03
    4.175840000000D+05-1.862645149231D-09-5.881939477703D-01-5.587935447693D-09
    9.781271399958D-01 2.747812500000D+02-1.187745360990D+00-7.933187591963D-09
    1.975082270104D-10 1.000000000000D+00 2.086000000000D+03 0.000000000000D+00
    2.000000000000D+00 0.000000000000D+00 4.656612873077D-09 1.000000000000D+00
    4.146300000000D+05 0.000000000000D+00
 7 20 01 02 14 00  0.0-1.833420246840D-04-8.299139153678D-12 0.000000000000D+00
    9.900000000000D+01 4.318750000000D+01 4.823058042584D-09-1.087633916707D+00
    2.231448888779D-06 1.322917628568D-02 6.847083568573D-06 5.153705022812D+03
    3.960000000000D+05 3.576278686523D-07 2.567762977018D+00 1.117587089539D-07
    9.540238252303D-01 2.425937500000D+02-2.420850729441D+00-8.220699567991D-09
   -3.285851154604D-11 1.000000000000D+00 2.086000000000D+03 0.000000000000D+00
    2.800000000000D+00 0.000000000000D+00-1.117587089539D-08 9.900000000000D+01
    3.888000000000D+05 0.000000000000D+00
 8 20 01 02 06 00  0.0-1.882156357169D-05-1.364242052659D-12 0.000000000000D+00
    6.100000000000D+01 2.043750000000D+01 4.305536485734D-09-2.180717408068D+00
    1.033768057823D-06 4.957412020303D-03 8.467584848404D-06 5.153607242584D+03
    3.672000000000D+05-1.061707735062D-07-1.648374353203D+00-5.215406417847D-08
    9.699326175410D-01 2.251875000000D+02-2.185936388796D-01-7.937116327040D-09
    6.607418082628D-11 1.000000000000D+00 2.086000000000D+03 0.000000000000D+00
    2.000000000000D+00 0.000000000000D+00 5.122274160385D-09 6.100000000000D+01
    3.600000000000D+05 0.000000000000D+00
 9 20 01 02 14 00  0.0-1.230947673321D-04-9.094947017729D-12 0.000000000000D+00
    9.900000000000D+01-4.562500000000D+00 4.672694636487D-09 2.307060037054D+00
   -2.775341272354D-07 1.719827414490D-03 1.003593206406D-05 5.153538438797D+03
    3.960000000000D+05-3.725290298462D-09 1.492682679265D+00-6.332993507385D-08
    9.522002144581D-01 1.768125000000D+02 1.701082440180D+00-8.051049644248D-09
   -2.428672592533D-11 1.000000000000D+00 2.086000000000D+03 0.000000000000D+00
    2.800000000000D+00 0.000000000000D+00 1.396983861923D-09 9.900000000000D+01
    3.888000000000D+05 0.000000000000D+00
10 20 01 03 00 00  0.0-1.954315230250D-04-1.386979420204D-11 0.000000000000D+00
    4.300000000000D+01-5.096875000000D+01 4.438042005121D-09 2.851956304182D+00
   -2.585351467133D-06 5.262941936962D-03 6.895512342453D-06 5.153664718628D+03
    4.320000000000D+05-6.146728992462D-08 4.578224892072D-01-6.891787052155D-08
    9.647105588327D-01 2.486250000000D+02-2.712936596196D+00-7.981761043814D-09
    2.035799084918D-11 1.000000000000D+00 2.086000000000D+03 0.000000000000D+00
    2.000000000000D+00 0.000000000000D+00 1.862645149231D-09 4.300000000000D+01
    4.266900000000D+05 0.000000000000D+00
11 20 01 02 08 00  0.0-4.018940962851D-04 1.091393642128D-11 0.000000000000D+00
    1.300000000000D+01 2.043750000000D+01 5.649163881779D-09 1.990070782710D+00
    9.946525096893D-07 1.593141804915D-02 5.794689059258D-06 5.152860298157D+03
    3.744000000000D+05 2.477318048477D-07-1.044706553296D+00-2.607703208923D-08
    9.115141512631D-01 2.377500000000D+02 1.971475865072D+00-8.452137779750D-09
    8.786080261224D-11 1.000000000000D+00 2.086000000000D+03 0.000000000000D+00
    2.000000000000D+00 0.000000000000D+00-1.210719347000D-08 1.300000000000D+01
    3.672000000000D+05 0.000000000000D+00
12 20 01 02 22 00  0.0 1.665391027927D-04-4.092726157978D-12 0.000000000000D+00
    4.700000000000D+01 8.812500000000D+00 4.121957410357D-09 2.507107692904D+00
    2.644956111908D-07 7.769239949994D-03 6.452202796936D-06 5.153773237228D+03
    4.248000000000D+05-4.284083843231D-08-2.612176227785D+00-1.247972249985D-07
    9.803855592794D-01 2.614687500000D+02 1.095651911763D+00-7.806753754058D-09
   -2.907263956356D-10 1.000000000000D+00 2.086000000000D+03 0.000000000000D+00
    2.000000000000D+00 0.000000000000D+00-1.257285475731D-08 4.700000000000D+01
    4.176000000000D+05 0.000000000000D+00
13 20 01 02 17 59 44.0-2.260692417622D-05 2.501110429876D-12 0.000000000000D+00
    9.000000000000D+00 7.968750000000D+00 4.346252467432D-09 3.027900798873D+00
    2.812594175339D-07 4.172212560661D-03 1.044757664204D-05 5.153667459488D+03
    4.103840000000D+05 2.793967723846D-08 1.633244073228D+00-6.519258022308D-08
    9.674443869934D-01 1.808437500000D+02 1.178282605594D+00-7.804610807653D-09
    8.321775206769D-11 1.000000000000D+00 2.086000000000D+03 0.000000000000D+00
    2.000000000000D+00 0.000000000000D+00-1.117587089539D-08 9.000000000000D+00
    4.032000000000D+05 0.000000000000D+00
14 20 01 02 22 00  0.0-4.113232716918D-05 2.273736754432D-12 0.000000000000D+00
    4.700000000000D+01 8.437500000000D-01 4.584119518407D-09-5.781463045599D-01
    1.043081283569D-07 1.077247073408D-02 1.028366386890D-05 5.153605537415D+03
    4.248000000000D+05-9.685754776001D-08 1.587176567863D+00 1.341104507446D-07
    9.600354383809D-01 1.844375000000D+02-1.931891572296D+00-8.166768750128D-09
    8.786080261224D-11 1.000000000000D+00 2.086000000000D+03 0.000000000000D+00
    2.000000000000D+00 0.000000000000D+00-9.778887033463D-09 4.700000000000D+01
    4.176000000000D+05 0.000000000000D+00
15 20 01 02 18 00  0.0-2.613612450659D-04 2.614797267597D-12 0.000000000000D+00
    4.900000000000D+01-2.062500000000D+01 5.238789645188D-09 3.013959368054D+00
   -1.193955540657D-06 1.211658737157D-02 1.018308103085D-05 5.153620645523D+03
    4.104000000000D+05-1.490116119385D-08 1.406838437176D+00-1.937150955200D-07
    9.277462791907D-01 1.646250000000D+02 8.562295905193D-01-8.118195298277D-09
    1.250052069686D-11 1.000000000000D+00 2.086000000000D+03 0.000000000000D+00
    2.000000000000D+00 0.000000000000D+00-1.117587089539D-08 4.900000000000D+01
    4.032000000000D+05 0.000000000000D+00
16 20 01 03 00 00  0.0-1.095216721296D-04-3.979039320257D-12 0.000000000000D+00
    8.200000000000D+01 7.218750000000D+00 4.313751113620D-09 1.706349615282D+00
    4.936009645462D-07 1.119413948618D-02 6.964430212975D-06 5.153692684174D+03
    4.320000000000D+05-2.477318048477D-07-2.593353999009D+00 1.732259988785D-07
    9.806564258764D-01 2.595000000000D+02 5.852077252793D-01-8.046406593704D-09
   -2.842975564201D-10 1.000000000000D+00 2.086000000000D+03 0.000000000000D+00
    2.000000000000D+00 0.000000000000D+00-1.024454832077D-08 8.200000000000D+01
    4.248000000000D+05 0.000000000000D+00
